start=new Date('2023-04-20T00:00:00.000Z').valueOf();
sats=[{"PERIOD":"95.591","OBJECT_ID":"2020-012J","CLASSIFICATION_TYPE":"U","INCLINATION":"53.0532","DECAY_DATE":null,"REV_AT_EPOCH":"17572","MEAN_ELEMENT_THEORY":"SGP4","TIME_SYSTEM":"UTC","ECCENTRICITY":"0.00014170","BSTAR":"0.00083661000000","OBJECT_NAME":"STARLINK-1224","RA_OF_ASC_NODE":"103.9898","ARG_OF_PERICENTER":"93.2963","COUNTRY_CODE":"US","REF_FRAME":"TEME","FILE":"3890383","EPOCH":"2023-04-19T09:36:22.754304","SEMIMAJOR_AXIS":"6925.298","MEAN_ANOMALY":"266.8188","ELEMENT_SET_NO":"999","CENTER_NAME":"EARTH","OBJECT_TYPE":"PAYLOAD","TLE_LINE1":"1 45186U 20012J   23109.40026336  .00012207  00000-0  83661-3 0  9997","GP_ID":"230362488","NORAD_CAT_ID":"45186","TLE_LINE2":"2 45186  53.0532 103.9898 0001417  93.2963 266.8188 15.06416380175722","MEAN_MOTION_DOT":"0.00012207","MEAN_MOTION_DDOT":"0.0000000000000","LAUNCH_DATE":"2020-02-17","APOAPSIS":"548.145","SITE":"AFETR","MEAN_MOTION":"15.06416380","RCS_SIZE":"LARGE","EPHEMERIS_TYPE":"0","PERIAPSIS":"546.182"},{"SEMIMAJOR_AXIS":"6925.365","MEAN_ANOMALY":"280.4971","ELEMENT_SET_NO":"999","CENTER_NAME":"EARTH","OBJECT_TYPE":"PAYLOAD","GP_ID":"230391449","TLE_LINE1":"1 45187U 20012K   23109.66936169  .00009280  00000-0  64118-3 0  9993","NORAD_CAT_ID":"45187","TLE_LINE2":"2 45187  53.0528 102.7855 0001369  79.6172 280.4971 15.06394537175815","MEAN_MOTION_DOT":"0.00009280","MEAN_MOTION_DDOT":"0.0000000000000","LAUNCH_DATE":"2020-02-17","APOAPSIS":"548.178","SITE":"AFETR","MEAN_MOTION":"15.06394537","EPHEMERIS_TYPE":"0","RCS_SIZE":"LARGE","PERIAPSIS":"546.282","PERIOD":"95.592","OBJECT_ID":"2020-012K","CLASSIFICATION_TYPE":"U","DECAY_DATE":null,"INCLINATION":"53.0528","REV_AT_EPOCH":"17581","MEAN_ELEMENT_THEORY":"SGP4","ECCENTRICITY":"0.00013690","TIME_SYSTEM":"UTC","BSTAR":"0.00064118000000","OBJECT_NAME":"STARLINK-1225","RA_OF_ASC_NODE":"102.7855","ARG_OF_PERICENTER":"79.6172","COUNTRY_CODE":"US","REF_FRAME":"TEME","FILE":"3890520","EPOCH":"2023-04-19T16:03:52.850016"},{"LAUNCH_DATE":"2020-02-17","APOAPSIS":"547.809","MEAN_MOTION_DOT":"0.00025359","TLE_LINE2":"2 45188  53.0571  64.7385 0001062 104.4857 255.6250 15.06445831176264","MEAN_MOTION_DDOT":"0.0000000000000","RCS_SIZE":"LARGE","EPHEMERIS_TYPE":"0","PERIAPSIS":"546.338","SITE":"AFETR","MEAN_MOTION":"15.06445831","CENTER_NAME":"EARTH","SEMIMAJOR_AXIS":"6925.208","MEAN_ANOMALY":"255.6250","ELEMENT_SET_NO":"999","NORAD_CAT_ID":"45188","OBJECT_TYPE":"PAYLOAD","GP_ID":"230363489","TLE_LINE1":"1 45188U 20012L   23109.23439108  .00025359  00000-0  17131-2 0  9995","COUNTRY_CODE":"US","ARG_OF_PERICENTER":"104.4857","REF_FRAME":"TEME","RA_OF_ASC_NODE":"64.7385","FILE":"3890383","EPOCH":"2023-04-19T05:37:31.389312","REV_AT_EPOCH":"17626","MEAN_ELEMENT_THEORY":"SGP4","ECCENTRICITY":"0.00010620","TIME_SYSTEM":"UTC","PERIOD":"95.589","CLASSIFICATION_TYPE":"U","OBJECT_ID":"2020-012L","DECAY_DATE":null,"INCLINATION":"53.0571","BSTAR":"0.00171310000000","OBJECT_NAME":"STARLINK-1228"},{"OBJECT_NAME":"STARLINK-1230","BSTAR":"0.00032993000000","DECAY_DATE":null,"INCLINATION":"53.0533","OBJECT_ID":"2020-012M","CLASSIFICATION_TYPE":"U","PERIOD":"95.591","TIME_SYSTEM":"UTC","ECCENTRICITY":"0.00014100","MEAN_ELEMENT_THEORY":"SGP4","REV_AT_EPOCH":"17304","EPOCH":"2023-04-19T16:09:08.843328","FILE":"3890520","RA_OF_ASC_NODE":"102.7692","REF_FRAME":"TEME","ARG_OF_PERICENTER":"97.1900","COUNTRY_CODE":"US","GP_ID":"230392449","TLE_LINE1":"1 45189U 20012M   23109.67301902  .00004638  00000-0  32993-3 0  9995","OBJECT_TYPE":"PAYLOAD","NORAD_CAT_ID":"45189","ELEMENT_SET_NO":"999","MEAN_ANOMALY":"262.9249","SEMIMAJOR_AXIS":"6925.312","CENTER_NAME":"EARTH","MEAN_MOTION":"15.06412060","SITE":"AFETR","PERIAPSIS":"546.200","RCS_SIZE":"LARGE","EPHEMERIS_TYPE":"0","MEAN_MOTION_DDOT":"0.0000000000000","MEAN_MOTION_DOT":"0.00004638","TLE_LINE2":"2 45189  53.0533 102.7692 0001410  97.1900 262.9249 15.06412060173041","APOAPSIS":"548.153","LAUNCH_DATE":"2020-02-17"},{"DECAY_DATE":null,"INCLINATION":"53.0545","PERIOD":"95.589","CLASSIFICATION_TYPE":"U","OBJECT_ID":"2020-012N","MEAN_ELEMENT_THEORY":"SGP4","ECCENTRICITY":"0.00011220","TIME_SYSTEM":"UTC","REV_AT_EPOCH":"17621","OBJECT_NAME":"STARLINK-1234","BSTAR":"0.00228460000000","RA_OF_ASC_NODE":"64.7729","REF_FRAME":"TEME","COUNTRY_CODE":"US","ARG_OF_PERICENTER":"109.8458","FILE":"3890383","EPOCH":"2023-04-19T05:26:54.573792","MEAN_ANOMALY":"250.2652","ELEMENT_SET_NO":"999","SEMIMAJOR_AXIS":"6925.200","CENTER_NAME":"EARTH","OBJECT_TYPE":"PAYLOAD","GP_ID":"230361989","TLE_LINE1":"1 45190U 20012N   23109.22702053  .00033957  00000-0  22846-2 0  9991","NORAD_CAT_ID":"45190","MEAN_MOTION_DDOT":"0.0000000000000","MEAN_MOTION_DOT":"0.00033957","TLE_LINE2":"2 45190  53.0545  64.7729 0001122 109.8458 250.2652 15.06448354176218","APOAPSIS":"547.842","LAUNCH_DATE":"2020-02-17","MEAN_MOTION":"15.06448354","SITE":"AFETR","EPHEMERIS_TYPE":"0","RCS_SIZE":"LARGE","PERIAPSIS":"546.288"},{"BSTAR":"0.00026757000000","OBJECT_NAME":"STARLINK-1236","REV_AT_EPOCH":"17303","MEAN_ELEMENT_THEORY":"SGP4","ECCENTRICITY":"0.00014230","TIME_SYSTEM":"UTC","PERIOD":"95.592","CLASSIFICATION_TYPE":"U","OBJECT_ID":"2020-012P","INCLINATION":"53.0516","DECAY_DATE":null,"FILE":"3890520","EPOCH":"2023-04-19T16:19:46.189344","ARG_OF_PERICENTER":"101.9387","COUNTRY_CODE":"US","REF_FRAME":"TEME","RA_OF_ASC_NODE":"102.7389","NORAD_CAT_ID":"45191","OBJECT_TYPE":"PAYLOAD","TLE_LINE1":"1 45191U 20012P   23109.68039571  .00003706  00000-0  26757-3 0  9995","GP_ID":"230390949","CENTER_NAME":"EARTH","SEMIMAJOR_AXIS":"6925.340","MEAN_ANOMALY":"258.1761","ELEMENT_SET_NO":"999","RCS_SIZE":"LARGE","EPHEMERIS_TYPE":"0","PERIAPSIS":"546.219","SITE":"AFETR","MEAN_MOTION":"15.06402931","LAUNCH_DATE":"2020-02-17","APOAPSIS":"548.190","TLE_LINE2":"2 45191  53.0516 102.7389 0001423 101.9387 258.1761 15.06402931173036","MEAN_MOTION_DOT":"0.00003706","MEAN_MOTION_DDOT":"0.0000000000000"},{"NORAD_CAT_ID":"45192","TLE_LINE1":"1 45192U 20012Q   23109.38921001  .00011641  00000-0  79885-3 0  9998","GP_ID":"230362990","OBJECT_TYPE":"PAYLOAD","CENTER_NAME":"EARTH","ELEMENT_SET_NO":"999","MEAN_ANOMALY":"263.6191","SEMIMAJOR_AXIS":"6925.311","PERIAPSIS":"546.250","RCS_SIZE":"LARGE","EPHEMERIS_TYPE":"0","MEAN_MOTION":"15.06412275","SITE":"AFETR","APOAPSIS":"548.102","LAUNCH_DATE":"2020-02-17","MEAN_MOTION_DDOT":"0.0000000000000","MEAN_MOTION_DOT":"0.00011641","TLE_LINE2":"2 45192  53.0527 104.0426 0001337  96.4950 263.6191 15.06412275175788","OBJECT_NAME":"STARLINK-1237","BSTAR":"0.00079885000000","ECCENTRICITY":"0.00013370","TIME_SYSTEM":"UTC","MEAN_ELEMENT_THEORY":"SGP4","REV_AT_EPOCH":"17578","DECAY_DATE":null,"INCLINATION":"53.0527","CLASSIFICATION_TYPE":"U","OBJECT_ID":"2020-012Q","PERIOD":"95.591","EPOCH":"2023-04-19T09:20:27.744864","FILE":"3890383","REF_FRAME":"TEME","COUNTRY_CODE":"US","ARG_OF_PERICENTER":"96.4950","RA_OF_ASC_NODE":"104.0426"},{"OBJECT_NAME":"STARLINK-1239","BSTAR":"-0.00002647300000","INCLINATION":"53.0517","DECAY_DATE":null,"CLASSIFICATION_TYPE":"U","OBJECT_ID":"2020-012R","PERIOD":"95.591","TIME_SYSTEM":"UTC","ECCENTRICITY":"0.00030810","MEAN_ELEMENT_THEORY":"SGP4","REV_AT_EPOCH":"17577","EPOCH":"2023-04-19T17:02:13.142976","FILE":"3890520","RA_OF_ASC_NODE":"102.6052","REF_FRAME":"TEME","COUNTRY_CODE":"US","ARG_OF_PERICENTER":"77.0834","GP_ID":"230391949","TLE_LINE1":"1 45193U 20012R   23109.70987434 -.00000677  00000-0 -26473-4 0  9992","OBJECT_TYPE":"PAYLOAD","NORAD_CAT_ID":"45193","ELEMENT_SET_NO":"999","MEAN_ANOMALY":"283.0498","SEMIMAJOR_AXIS":"6925.276","CENTER_NAME":"EARTH","MEAN_MOTION":"15.06423527","SITE":"AFETR","PERIAPSIS":"545.008","EPHEMERIS_TYPE":"0","RCS_SIZE":"LARGE","MEAN_MOTION_DDOT":"0.0000000000000","MEAN_MOTION_DOT":"-0.00000677","TLE_LINE2":"2 45193  53.0517 102.6052 0003081  77.0834 283.0498 15.06423527175778","APOAPSIS":"549.275","LAUNCH_DATE":"2020-02-17"},{"EPOCH":"2023-04-19T17:07:32.025504","FILE":"3890520","COUNTRY_CODE":"US","ARG_OF_PERICENTER":"75.5756","REF_FRAME":"TEME","RA_OF_ASC_NODE":"102.5910","BSTAR":"0.00040242000000","OBJECT_NAME":"STARLINK-1240","REV_AT_EPOCH":"17572","TIME_SYSTEM":"UTC","ECCENTRICITY":"0.00008430","MEAN_ELEMENT_THEORY":"SGP4","OBJECT_ID":"2020-012S","CLASSIFICATION_TYPE":"U","PERIOD":"95.592","INCLINATION":"53.0539","DECAY_DATE":null,"PERIAPSIS":"546.626","EPHEMERIS_TYPE":"0","RCS_SIZE":"LARGE","SITE":"AFETR","MEAN_MOTION":"15.06401233","LAUNCH_DATE":"2020-02-17","APOAPSIS":"547.794","MEAN_MOTION_DOT":"0.00005718","TLE_LINE2":"2 45194  53.0539 102.5910 0000843  75.5756 284.5326 15.06401233175725","MEAN_MOTION_DDOT":"0.0000000000000","NORAD_CAT_ID":"45194","GP_ID":"230390699","TLE_LINE1":"1 45194U 20012S   23109.71356511  .00005718  00000-0  40242-3 0  9998","OBJECT_TYPE":"PAYLOAD","CENTER_NAME":"EARTH","SEMIMAJOR_AXIS":"6925.345","ELEMENT_SET_NO":"999","MEAN_ANOMALY":"284.5326"},{"APOAPSIS":"454.503","LAUNCH_DATE":"2020-02-17","MEAN_MOTION_DDOT":"0.0000000000000","MEAN_MOTION_DOT":"0.00186293","TLE_LINE2":"2 45195  53.0479  75.8342 0009323  81.3817 278.8243 15.39313784176178","EPHEMERIS_TYPE":"0","RCS_SIZE":"LARGE","PERIAPSIS":"441.775","MEAN_MOTION":"15.39313784","SITE":"AFETR","CENTER_NAME":"EARTH","MEAN_ANOMALY":"278.8243","ELEMENT_SET_NO":"999","SEMIMAJOR_AXIS":"6826.274","NORAD_CAT_ID":"45195","OBJECT_TYPE":"PAYLOAD","GP_ID":"230362739","TLE_LINE1":"1 45195U 20012T   23109.34504662  .00186293  00000-0  45950-2 0  9998","REF_FRAME":"TEME","ARG_OF_PERICENTER":"81.3817","COUNTRY_CODE":"US","RA_OF_ASC_NODE":"75.8342","FILE":"3890383","EPOCH":"2023-04-19T08:16:52.027968","MEAN_ELEMENT_THEORY":"SGP4","ECCENTRICITY":"0.00093230","TIME_SYSTEM":"UTC","REV_AT_EPOCH":"17617","INCLINATION":"53.0479","DECAY_DATE":null,"PERIOD":"93.548","OBJECT_ID":"2020-012T","CLASSIFICATION_TYPE":"U","OBJECT_NAME":"STARLINK-1241","BSTAR":"0.00459500000000"}];
